NORAD_CAT_ID,OBJECT_NAME,OBJECT_TYPE,EPOCH,MEAN_MOTION,ECCENTRICITY,INCLINATION,RA_OF_ASC_NODE,ARG_OF_PERICENTER,MEAN_ANOMALY,BSTAR,MEAN_MOTION_DOT,MEAN_MOTION_DDOT,TLE_LINE0,TLE_LINE1,TLE_LINE2,SEMIMAJOR_AXIS,PERIOD,APOGEE,PERIGEE,DECAYED
50837.0,STARLINK-3318,PAYLOAD,2022-12-02 03:39:19,15.08836455,0.000257,53.2145,127.1356,55.113,305.0104,2.603e-05,1.26e-06,0.0,0 STARLINK-3318,1 50837U 22001AL  22336.15230587  .00000126  00000-0  26030-4 0  9999,2 50837  53.2145 127.1356 0002570  55.1130 305.0104 15.08836455 51429,6917.891,95.438,541.534,537.9780000000002,0.0
50837.0,STARLINK-3318,PAYLOAD,2022-12-02 10:00:51,15.08842939,0.0003076,53.2169,125.9465,53.26,306.8674,0.00010519,1.386e-05,0.0,0 STARLINK-3318,1 50837U 22001AL  22336.41726538  .00001386  00000-0  10519-3 0  9997,2 50837  53.2169 125.9465 0003076  53.2600 306.8674 15.08842939 50261,6917.871,95.437,541.864,537.6080000000002,0.0
50837.0,STARLINK-3318,PAYLOAD,2022-12-02 19:33:10,15.08845851,0.0002744,53.2155,124.1614,52.1268,307.9972,0.0001381,1.91e-05,0.0,0 STARLINK-3318,1 50837U 22001AL  22336.81470194  .00001910  00000-0  13810-3 0  9995,2 50837  53.2155 124.1614 0002744  52.1268 307.9972 15.08845851 50328,6917.863,95.437,541.626,537.8290000000002,0.0
50837.0,STARLINK-3318,PAYLOAD,2022-12-03 13:02:25,15.08834914,0.0002689,53.2144,120.8902,49.861,310.2618,-5.9156e-06,-3.83e-06,0.0,0 STARLINK-3318,1 50837U 22001AL  22337.54334876 -.00000383  00000-0 -59156-5 0  9992,2 50837  53.2144 120.8902 0002689  49.8610 310.2618 15.08834914 51638,6917.896,95.438,541.621,537.901,0.0
50837.0,STARLINK-3318,PAYLOAD,2022-12-03 19:23:57,15.08839031,0.0002622,53.2155,119.7006,49.1773,310.9446,4.9291e-06,-2.1e-06,0.0,0 STARLINK-3318,1 50837U 22001AL  22337.80830818 -.00000210  00000-0  49291-5 0  9995,2 50837  53.2155 119.7006 0002622  49.1773 310.9446 15.08839031 50474,6917.8830000000025,95.438,541.562,537.934,0.0
50837.0,STARLINK-3318,PAYLOAD,2022-12-04 12:53:12,15.08845604,0.0002612,53.2156,116.4297,50.0197,310.1024,0.0002188,3.196e-05,0.0,0 STARLINK-3318,1 50837U 22001AL  22338.53694540  .00003196  00000-0  21880-3 0  9993,2 50837  53.2156 116.4297 0002612  50.0197 310.1024 15.08845604 50580,6917.863,95.437,541.535,537.9209999999998,0.0
50837.0,STARLINK-3318,PAYLOAD,2022-12-04 17:39:21,15.08848229,0.0002609,53.2158,115.5378,49.8661,310.2559,0.00023239,3.413e-05,0.0,0 STARLINK-3318,1 50837U 22001AL  22338.73566391  .00003413  00000-0  23239-3 0  9999,2 50837  53.2158 115.5378 0002609  49.8661 310.2559 15.08848229 51817,6917.855,95.437,541.525,537.915,0.0
50837.0,STARLINK-3318,PAYLOAD,2022-12-04 20:50:08,15.08841477,0.0002663,53.2156,114.9433,52.0614,308.0618,0.0001568,2.208e-05,0.0,0 STARLINK-3318,1 50837U 22001AL  22338.86814837  .00002208  00000-0  15680-3 0  9996,2 50837  53.2156 114.9433 0002663  52.0614 308.0618 15.08841477 51835,6917.876,95.437,541.5830000000002,537.899,0.0
50837.0,STARLINK-3318,PAYLOAD,2022-12-05 09:33:12,15.08847352,0.0002701,53.2158,112.5639,49.1149,311.0077,0.00024548,3.621e-05,0.0,0 STARLINK-3318,1 50837U 22001AL  22339.39806590  .00003621  00000-0  24548-3 0  9995,2 50837  53.2158 112.5639 0002701  49.1149 311.0077 15.08847352 50719,6917.858,95.437,541.591,537.854,0.0
50837.0,STARLINK-3318,PAYLOAD,2022-12-05 19:05:31,15.08853964,0.0002758,53.2161,110.7807,48.4253,311.6975,0.00026974,4.009e-05,0.0,0 STARLINK-3318,1 50837U 22001AL  22339.79550131  .00004009  00000-0  26974-3 0  9992,2 50837  53.2161 110.7807 0002758  48.4253 311.6975 15.08853964 50775,6917.8380000000025,95.437,541.611,537.795,0.0
50837.0,STARLINK-3318,PAYLOAD,2022-12-06 01:27:04,15.08845357,0.0002913,53.2163,109.591,45.3995,314.7235,4.7292e-05,4.64e-06,0.0,0 STARLINK-3318,1 50837U 22001AL  22340.06046326  .00000464  00000-0  47292-4 0  9998,2 50837  53.2163 109.5910 0002913  45.3995 314.7235 15.08845357 52019,6917.864000000001,95.437,541.744,537.714,0.0
50837.0,STARLINK-3318,PAYLOAD,2022-12-06 09:23:59,15.08845893,0.000249,53.216,108.1037,48.7354,311.3852,5.4074e-05,5.72e-06,0.0,0 STARLINK-3318,1 50837U 22001AL  22340.39166113  .00000572  00000-0  54074-4 0  9997,2 50837  53.2160 108.1037 0002490  48.7354 311.3852 15.08845893 50861,6917.861999999999,95.437,541.45,538.005,0.0
50837.0,STARLINK-3318,PAYLOAD,2022-12-06 18:56:18,15.08838329,0.000254,53.2162,106.3196,47.7426,312.3781,-9.1922e-05,-1.751e-05,0.0,0 STARLINK-3318,1 50837U 22001AL  22340.78910344 -.00001751  00000-0 -91922-4 0  9998,2 50837  53.2162 106.3196 0002540  47.7426 312.3781 15.08838329 50929,6917.885,95.438,541.508,537.993,0.0
50837.0,STARLINK-3318,PAYLOAD,2022-12-07 18:47:05,15.08838308,0.0002492,53.2167,101.8586,49.3796,310.7413,-1.6417e-05,-5.5e-06,0.0,0 STARLINK-3318,1 50837U 22001AL  22341.78270759 -.00000550  00000-0 -16417-4 0  9990,2 50837  53.2167 101.8586 0002492  49.3796 310.7413 15.08838308 51079,6917.886,95.438,541.474,538.0269999999998,0.0
50837.0,STARLINK-3318,PAYLOAD,2022-12-07 20:22:28,15.08841895,0.0002498,53.2165,101.5613,48.2817,311.8388,3.5838000000000005e-05,2.82e-06,0.0,0 STARLINK-3318,1 50837U 22001AL  22341.84894584  .00000282  00000-0  35838-4 0  9993,2 50837  53.2165 101.5613 0002498  48.2817 311.8388 15.08841895 52285,6917.875,95.437,541.4680000000002,538.012,0.0
50837.0,STARLINK-3318,PAYLOAD,2022-12-08 12:16:20,15.08847186,0.0002409,53.2163,98.5888,38.1485,321.9678,0.00028258,4.213e-05,0.0,0 STARLINK-3318,1 50837U 22001AL  22342.51134319  .00004213  00000-0  28258-3 0  9996,2 50837  53.2163  98.5888 0002409  38.1485 321.9678 15.08847186 51184,6917.858,95.437,541.39,538.057,0.0
50837.0,STARLINK-3318,PAYLOAD,2022-12-08 18:37:53,15.08833458,0.0002419,53.2165,97.4001,42.0568,318.061,1.1466e-06,-2.7000000000000004e-06,0.0,0 STARLINK-3318,1 50837U 22001AL  22342.77630888 -.00000270  00000-0  11466-5 0  9991,2 50837  53.2165  97.4001 0002419  42.0568 318.0610 15.08833458 51223,6917.9,95.438,541.439,538.092,0.0
50837.0,STARLINK-3318,PAYLOAD,2022-12-09 07:20:59,15.08824563,0.000249,53.2171,95.0197,44.4947,315.6244,-7.7232e-05,-1.517e-05,0.0,0 STARLINK-3318,1 50837U 22001AL  22343.30623850 -.00001517  00000-0 -77232-4 0  9990,2 50837  53.2171  95.0197 0002490  44.4947 315.6244 15.08824563 52501,6917.928000000001,95.439,541.515,538.07,0.0
50837.0,STARLINK-3318,PAYLOAD,2022-12-10 07:11:45,15.08846849,0.0002394,53.2167,90.5589,44.3592,315.7592,0.00016949,2.411e-05,0.0,0 STARLINK-3318,1 50837U 22001AL  22344.29983134  .00002411  00000-0  16949-3 0  9992,2 50837  53.2167  90.5589 0002394  44.3592 315.7592 15.08846849 52653,6917.859,95.437,541.381,538.068,0.0
50837.0,STARLINK-3318,PAYLOAD,2022-12-10 13:33:18,15.0884335,0.0002145,53.2175,89.3705,22.4012,337.7073,0.00015269,2.143e-05,0.0,0 STARLINK-3318,1 50837U 22001AL  22344.56479178  .00002143  00000-0  15269-3 0  9996,2 50837  53.2175  89.3705 0002145  22.4012 337.7073 15.08843350 51499,6917.87,95.437,541.219,538.251,0.0
50837.0,STARLINK-3318,PAYLOAD,2022-12-10 16:44:04,15.0884624,0.0001873,53.217,88.7755,32.6542,327.4566,0.0002244,3.286e-05,0.0,0 STARLINK-3318,1 50837U 22001AL  22344.69727002  .00003286  00000-0  22440-3 0  9990,2 50837  53.2170  88.7755 0001873  32.6542 327.4566 15.08846240 51517,6917.861,95.437,541.0219999999998,538.431,0.0
50837.0,STARLINK-3318,PAYLOAD,2022-12-11 11:48:42,15.08846313,0.0001993,53.2166,85.208,25.9847,334.1245,0.00053869,8.297e-05,0.0,0 STARLINK-3318,1 50837U 22001AL  22345.49215353  .00008297  00000-0  53869-3 0  9996,2 50837  53.2166  85.2080 0001993  25.9847 334.1245 15.08846313 52837,6917.861,95.437,541.105,538.347,0.0
50837.0,STARLINK-3318,PAYLOAD,2022-12-11 16:34:51,15.08850512,0.0002272,53.2173,84.3163,35.759,324.3554,0.00024024,3.538e-05,0.0,0 STARLINK-3318,1 50837U 22001AL  22345.69086988  .00003538  00000-0  24024-3 0  9992,2 50837  53.2173  84.3163 0002272  35.7590 324.3554 15.08850512 51662,6917.848000000001,95.437,541.285,538.1419999999998,0.0
50837.0,STARLINK-3318,PAYLOAD,2022-12-12 11:39:28,15.08840689,0.0002327,53.2174,80.7475,44.0005,316.1172,0.00019625,2.837e-05,0.0,0 STARLINK-3318,1 50837U 22001AL  22346.48575123  .00002837  00000-0  19625-3 0  9996,2 50837  53.2174  80.7475 0002327  44.0005 316.1172 15.08840689 52989,6917.878000000002,95.438,541.3530000000002,538.133,0.0
50837.0,STARLINK-3318,PAYLOAD,2022-12-12 16:25:38,15.08844201,0.0002368,53.2167,79.8556,33.6934,326.4208,-6.0852e-05,-1.257e-05,0.0,0 STARLINK-3318,1 50837U 22001AL  22346.68446802 -.00001257  00000-0 -60852-4 0  9995,2 50837  53.2167  79.8556 0002368  33.6934 326.4208 15.08844201 51819,6917.868,95.437,541.371,538.094,0.0
50837.0,STARLINK-3318,PAYLOAD,2022-12-13 06:44:06,15.0883818,0.0002238,53.2176,77.1786,38.8784,321.2369,-7.6191e-06,-4.1e-06,0.0,0 STARLINK-3318,1 50837U 22001AL  22347.28063412 -.00000410  00000-0 -76191-5 0  9998,2 50837  53.2176  77.1786 0002238  38.8784 321.2369 15.08838180 53105,6917.886,95.438,541.299,538.203,0.0
50837.0,STARLINK-3318,PAYLOAD,2022-12-13 09:54:52,15.08838609,0.0002243,53.2175,76.5838,40.2978,319.818,-1.1491e-05,-4.71e-06,0.0,0 STARLINK-3318,1 50837U 22001AL  22347.41311336 -.00000471  00000-0 -11491-4 0  9992,2 50837  53.2175  76.5838 0002243  40.2978 319.8180 15.08838609 51921,6917.885,95.438,541.3009999999998,538.198,0.0
50837.0,STARLINK-3318,PAYLOAD,2022-12-13 16:16:25,15.08840559,0.0002254,53.2176,75.3944,40.2927,319.8231,2.3889e-06,-2.5e-06,0.0,0 STARLINK-3318,1 50837U 22001AL  22347.67807158 -.00000250  00000-0  23889-5 0  9991,2 50837  53.2176  75.3944 0002254  40.2927 319.8231 15.08840559 51961,6917.879,95.438,541.303,538.184,0.0
50837.0,STARLINK-3318,PAYLOAD,2022-12-14 11:21:03,15.08838421,0.0002393,53.2175,71.8278,29.0633,331.0492,5.1987e-05,5.39e-06,0.0,0 STARLINK-3318,1 50837U 22001AL  22348.47295244  .00000539  00000-0  51987-4 0  9995,2 50837  53.2175  71.8278 0002393  29.0633 331.0492 15.08838421 53281,6917.885,95.438,541.406,538.095,0.0
